MALLIGYONG-1            
1 58400U 23179A   24106.59893082  .00008578  00000+0  37940-3 0  9999
2 58400  97.4116 354.3859 0011220 117.8228 242.4146 15.21870555 22207
